IRIDIUM 63              
1 25286U 98021B   25103.53792474  .00000831  00000+0  27699-3 0  9992
2 25286  86.3931 109.2616 0002446  91.8722 268.2755 14.36476173414562
IRIDIUM 69              
1 25319U 98026A   25103.74853890  .00000938  00000+0  28672-3 0  9997
2 25319  86.3940 122.6600 0001361 162.3420 197.7828 14.40887287413782
IRIDIUM 71              
1 25320U 98026B   25103.76404260  .00000852  00000+0  25860-3 0  9995
2 25320  86.3931 117.3547 0001127  24.0408 336.0844 14.41084321414310
IRIDIUM 73              
1 25344U 98032C   25103.61203238  .00001538  00000+0  37907-3 0  9991
2 25344  86.4381  74.2393 0002090 102.0879 258.0560 14.51606162421191
IRIDIUM 82              
1 25467U 98051A   25103.56308725  .00032398  00000+0  10208-2 0  9991
2 25467  86.3682 141.4285 0092452 179.6369 180.4964 15.28585773414076
